{
  "type": "FeatureCollection",
  "features": [
    {
      "type": "Feature",
      "properties": {
        "norad_id": 39160,
        "name": "VNREDSAT 1",
        "group": "resource",
        "lat": -77.77433664698745,
        "lon": 73.14511720767068,
        "alt_km": 685.6632820032664,
        "timestamp": "2025-12-03T10:52:57.106770+00:00",
        "meta_object_name": "VNREDSAT 1",
        "meta_object_id": "2013-021B",
        "meta_epoch": "2025-12-03T04:41:35.227968",
        "meta_mean_motion": 14.64898703,
        "meta_eccentricity": 0.0001367,
        "meta_inclination": 97.9387,
        "meta_ra_of_asc_node": 32.8045,
        "meta_arg_of_pericenter": 83.8574,
        "meta_mean_anomaly": 276.2785,
        "meta_ephemeris_type": 0,
        "meta_classification_type": "U",
        "meta_norad_cat_id": 39160,
        "meta_element_set_no": 999,
        "meta_rev_at_epoch": 67159,
        "meta_bstar": 0.00019524,
        "meta_mean_motion_dot": 9.98e-06,
        "meta_mean_motion_ddot": 0,
        "tle_line1": "1 39160U 13021B   25337.19554662  .00000998  00000+0  19524-3 0  9993",
        "tle_line2": "2 39160  97.9387  32.8045 0001367  83.8574 276.2785 14.64898703671593"
      },
      "geometry": {
        "type": "Point",
        "coordinates": [
          73.14511720767068,
          -77.77433664698745
        ]
      }
    },
    {
      "type": "Feature",
      "properties": {
        "norad_id": 39227,
        "name": "ARIRANG-5 (KOMPSAT-5)",
        "group": "resource",
        "lat": 62.747744397116065,
        "lon": -3.0540488697313704,
        "alt_km": 544.4873089635894,
        "timestamp": "2025-12-03T10:52:57.106786+00:00",
        "meta_object_name": "ARIRANG-5 (KOMPSAT-5)",
        "meta_object_id": "2013-042A",
        "meta_epoch": "2025-12-03T03:59:00.098304",
        "meta_mean_motion": 15.04500784,
        "meta_eccentricity": 0.0004298,
        "meta_inclination": 97.6158,
        "meta_ra_of_asc_node": 161.6065,
        "meta_arg_of_pericenter": 82.5542,
        "meta_mean_anomaly": 277.6172,
        "meta_ephemeris_type": 0,
        "meta_classification_type": "U",
        "meta_norad_cat_id": 39227,
        "meta_element_set_no": 999,
        "meta_rev_at_epoch": 67438,
        "meta_bstar": 0.0001561,
        "meta_mean_motion_dot": 2.125e-05,
        "meta_mean_motion_ddot": 0,
        "tle_line1": "1 39227U 13042A   25337.16597336  .00002125  00000+0  15610-3 0  9998",
        "tle_line2": "2 39227  97.6158 161.6065 0004298  82.5542 277.6172 15.04500784674389"
      },
      "geometry": {
        "type": "Point",
        "coordinates": [
          -3.0540488697313704,
          62.747744397116065
        ]
      }
    },
    {
      "type": "Feature",
      "properties": {
        "norad_id": 39418,
        "name": "SKYSAT-A",
        "group": "resource",
        "lat": -72.66041889860429,
        "lon": -176.7001512678131,
        "alt_km": 525.4420251353049,
        "timestamp": "2025-12-03T10:52:57.106797+00:00",
        "meta_object_name": "SKYSAT-A",
        "meta_object_id": "2013-066C",
        "meta_epoch": "2025-12-03T03:24:15.349248",
        "meta_mean_motion": 15.11489448,
        "meta_eccentricity": 0.0020442,
        "meta_inclination": 97.4128,
        "meta_ra_of_asc_node": 27.6425,
        "meta_arg_of_pericenter": 272.095,
        "meta_mean_anomaly": 87.7939,
        "meta_ephemeris_type": 0,
        "meta_classification_type": "U",
        "meta_norad_cat_id": 39418,
        "meta_element_set_no": 999,
        "meta_rev_at_epoch": 65885,
        "meta_bstar": 0.0003027,
        "meta_mean_motion_dot": 5.085e-05,
        "meta_mean_motion_ddot": 0,
        "tle_line1": "1 39418U 13066C   25337.14184432  .00005085  00000+0  30270-3 0  9990",
        "tle_line2": "2 39418  97.4128  27.6425 0020442 272.0950  87.7939 15.11489448658851"
      },
      "geometry": {
        "type": "Point",
        "coordinates": [
          -176.7001512678131,
          -72.66041889860429
        ]
      }
    },
    {
      "type": "Feature",
      "properties": {
        "norad_id": 39419,
        "name": "DUBAISAT-2",
        "group": "resource",
        "lat": 34.2109051802928,
        "lon": 153.2490605048092,
        "alt_km": 546.3871894934509,
        "timestamp": "2025-12-03T10:52:57.106807+00:00",
        "meta_object_name": "DUBAISAT-2",
        "meta_object_id": "2013-066D",
        "meta_epoch": "2025-12-03T05:27:48.612672",
        "meta_mean_motion": 15.08208547,
        "meta_eccentricity": 0.0011507,
        "meta_inclination": 97.4441,
        "meta_ra_of_asc_node": 327.9303,
        "meta_arg_of_pericenter": 356.6535,
        "meta_mean_anomaly": 3.4614,
        "meta_ephemeris_type": 0,
        "meta_classification_type": "U",
        "meta_norad_cat_id": 39419,
        "meta_element_set_no": 999,
        "meta_rev_at_epoch": 65683,
        "meta_bstar": 0.00041274,
        "meta_mean_motion_dot": 6.335e-05,
        "meta_mean_motion_ddot": 0,
        "tle_line1": "1 39419U 13066D   25337.22764598  .00006335  00000+0  41274-3 0  9992",
        "tle_line2": "2 39419  97.4441 327.9303 0011507 356.6535   3.4614 15.08208547656837"
      },
      "geometry": {
        "type": "Point",
        "coordinates": [
          153.2490605048092,
          34.2109051802928
        ]
      }
    },
    {
      "type": "Feature",
      "properties": {
        "norad_id": 39574,
        "name": "GPM-CORE",
        "group": "resource",
        "lat": 62.770564601349705,
        "lon": -1.4069970938251235,
        "alt_km": 430.7604776081489,
        "timestamp": "2025-12-03T10:52:57.106818+00:00",
        "meta_object_name": "GPM-CORE",
        "meta_object_id": "2014-009C",
        "meta_epoch": "2025-12-03T04:13:58.882080",
        "meta_mean_motion": 15.45163195,
        "meta_eccentricity": 0.0010568,
        "meta_inclination": 64.9754,
        "meta_ra_of_asc_node": 244.7316,
        "meta_arg_of_pericenter": 268.6732,
        "meta_mean_anomaly": 91.3198,
        "meta_ephemeris_type": 0,
        "meta_classification_type": "U",
        "meta_norad_cat_id": 39574,
        "meta_element_set_no": 999,
        "meta_rev_at_epoch": 66753,
        "meta_bstar": 0.0004286,
        "meta_mean_motion_dot": 0.00020282,
        "meta_mean_motion_ddot": 0,
        "tle_line1": "1 39574U 14009C   25337.17637595  .00020282  00000+0  42860-3 0  9991",
        "tle_line2": "2 39574  64.9754 244.7316 0010568 268.6732  91.3198 15.45163195667534"
      },
      "geometry": {
        "type": "Point",
        "coordinates": [
          -1.4069970938251235,
          62.770564601349705
        ]
      }
    },
    {
      "type": "Feature",
      "properties": {
        "norad_id": 39634,
        "name": "SENTINEL-1A",
        "group": "resource",
        "lat": -28.96647877095948,
        "lon": -12.600918534916136,
        "alt_km": 702.0408488039902,
        "timestamp": "2025-12-03T10:52:57.106828+00:00",
        "meta_object_name": "SENTINEL-1A",
        "meta_object_id": "2014-016A",
        "meta_epoch": "2025-12-03T04:26:01.140288",
        "meta_mean_motion": 14.59201308,
        "meta_eccentricity": 0.0001251,
        "meta_inclination": 98.1805,
        "meta_ra_of_asc_node": 342.5672,
        "meta_arg_of_pericenter": 89.0755,
        "meta_mean_anomaly": 271.0588,
        "meta_ephemeris_type": 0,
        "meta_classification_type": "U",
        "meta_norad_cat_id": 39634,
        "meta_element_set_no": 999,
        "meta_rev_at_epoch": 62143,
        "meta_bstar": 7.3774e-05,
        "meta_mean_motion_dot": 3.02e-06,
        "meta_mean_motion_ddot": 0,
        "tle_line1": "1 39634U 14016A   25337.18473542  .00000302  00000+0  73774-4 0  9997",
        "tle_line2": "2 39634  98.1805 342.5672 0001251  89.0755 271.0588 14.59201308621430"
      },
      "geometry": {
        "type": "Point",
        "coordinates": [
          -12.600918534916136,
          -28.96647877095948
        ]
      }
    },
    {
      "type": "Feature",
      "properties": {
        "norad_id": 39731,
        "name": "KAZEOSAT 1",
        "group": "resource",
        "lat": 22.139699819229715,
        "lon": -127.00767875259245,
        "alt_km": 751.0363997052336,
        "timestamp": "2025-12-03T10:52:57.106839+00:00",
        "meta_object_name": "KAZEOSAT 1",
        "meta_object_id": "2014-024A",
        "meta_epoch": "2025-12-03T03:29:36.835008",
        "meta_mean_motion": 14.42053223,
        "meta_eccentricity": 0.000106,
        "meta_inclination": 98.3445,
        "meta_ra_of_asc_node": 49.2678,
        "meta_arg_of_pericenter": 98.9912,
        "meta_mean_anomaly": 261.1398,
        "meta_ephemeris_type": 0,
        "meta_classification_type": "U",
        "meta_norad_cat_id": 39731,
        "meta_element_set_no": 999,
        "meta_rev_at_epoch": 61030,
        "meta_bstar": 0.00011764,
        "meta_mean_motion_dot": 3.43e-06,
        "meta_mean_motion_ddot": 0,
        "tle_line1": "1 39731U 14024A   25337.14556522  .00000343  00000+0  11764-3 0  9995",
        "tle_line2": "2 39731  98.3445  49.2678 0001060  98.9912 261.1398 14.42053223610305"
      },
      "geometry": {
        "type": "Point",
        "coordinates": [
          -127.00767875259245,
          22.139699819229715
        ]
      }
    }
  ]
}